[
    {
        "OBJECT_NAME": "COSMOS 2522 [GLONASS-M]",
        "OBJECT_ID": "2017-055A",
        "EPOCH": "2025-04-13T18:01:23.531520",
        "MEAN_MOTION": 2.13101829,
        "ECCENTRICITY": 0.0008229,
        "INCLINATION": 64.0768,
        "RA_OF_ASC_NODE": 206.5058,
        "ARG_OF_PERICENTER": 234.5077,
        "MEAN_ANOMALY": 125.4349,
        "EPHEMERIS_TYPE": 0,
        "CLASSIFICATION_TYPE": "U",
        "NORAD_CAT_ID": 42939,
        "ELEMENT_SET_NO": 999,
        "REV_AT_EPOCH": 5882,
        "BSTAR": 0,
        "MEAN_MOTION_DOT": 1.5e-07,
        "MEAN_MOTION_DDOT": 0
    },
    {
        "OBJECT_NAME": "COSMOS 2529 [GLONASS-M]",
        "OBJECT_ID": "2018-086A",
        "EPOCH": "2025-04-13T19:25:05.404512",
        "MEAN_MOTION": 2.13102107,
        "ECCENTRICITY": 0.000932,
        "INCLINATION": 64.2927,
        "RA_OF_ASC_NODE": 207.0974,
        "ARG_OF_PERICENTER": 257.0665,
        "MEAN_ANOMALY": 102.8478,
        "EPHEMERIS_TYPE": 0,
        "CLASSIFICATION_TYPE": "U",
        "NORAD_CAT_ID": 43687,
        "ELEMENT_SET_NO": 999,
        "REV_AT_EPOCH": 5013,
        "BSTAR": 0,
        "MEAN_MOTION_DOT": 1.5e-07,
        "MEAN_MOTION_DDOT": 0
    },
    {
        "OBJECT_NAME": "COSMOS 2534 [GLONASS-M]",
        "OBJECT_ID": "2019-030A",
        "EPOCH": "2025-04-12T22:54:37.497024",
        "MEAN_MOTION": 2.13102459,
        "ECCENTRICITY": 0.0011023,
        "INCLINATION": 64.3659,
        "RA_OF_ASC_NODE": 207.1079,
        "ARG_OF_PERICENTER": 280.6616,
        "MEAN_ANOMALY": 278.0123,
        "EPHEMERIS_TYPE": 0,
        "CLASSIFICATION_TYPE": "U",
        "NORAD_CAT_ID": 44299,
        "ELEMENT_SET_NO": 999,
        "REV_AT_EPOCH": 4575,
        "BSTAR": 0,
        "MEAN_MOTION_DOT": 6e-08,
        "MEAN_MOTION_DDOT": 0
    },
    {
        "OBJECT_NAME": "COSMOS 2544 [GLONASS-M]",
        "OBJECT_ID": "2019-088A",
        "EPOCH": "2025-04-13T15:43:25.928544",
        "MEAN_MOTION": 2.13102078,
        "ECCENTRICITY": 0.001536,
        "INCLINATION": 65.3326,
        "RA_OF_ASC_NODE": 88.0905,
        "ARG_OF_PERICENTER": 262.2569,
        "MEAN_ANOMALY": 97.5587,
        "EPHEMERIS_TYPE": 0,
        "CLASSIFICATION_TYPE": "U",
        "NORAD_CAT_ID": 44850,
        "ELEMENT_SET_NO": 999,
        "REV_AT_EPOCH": 4156,
        "BSTAR": 0,
        "MEAN_MOTION_DOT": 2.2e-07,
        "MEAN_MOTION_DDOT": 0
    },
    {
        "OBJECT_NAME": "COSMOS 2545 [GLONASS-M]",
        "OBJECT_ID": "2020-018A",
        "EPOCH": "2025-04-12T21:55:13.560960",
        "MEAN_MOTION": 2.13102649,
        "ECCENTRICITY": 0.0007255,
        "INCLINATION": 64.6031,
        "RA_OF_ASC_NODE": 327.5047,
        "ARG_OF_PERICENTER": 248.4081,
        "MEAN_ANOMALY": 111.5699,
        "EPHEMERIS_TYPE": 0,
        "CLASSIFICATION_TYPE": "U",
        "NORAD_CAT_ID": 45358,
        "ELEMENT_SET_NO": 999,
        "REV_AT_EPOCH": 3949,
        "BSTAR": 0,
        "MEAN_MOTION_DOT": -4.8e-07,
        "MEAN_MOTION_DDOT": 0
    },
    {
        "OBJECT_NAME": "COSMOS 2547 [GLONASS-K]",
        "OBJECT_ID": "2020-075A",
        "EPOCH": "2025-04-11T05:19:45.247872",
        "MEAN_MOTION": 2.13100377,
        "ECCENTRICITY": 0.0007457,
        "INCLINATION": 64.5959,
        "RA_OF_ASC_NODE": 206.8963,
        "ARG_OF_PERICENTER": 236.3937,
        "MEAN_ANOMALY": 123.5384,
        "EPHEMERIS_TYPE": 0,
        "CLASSIFICATION_TYPE": "U",
        "NORAD_CAT_ID": 46805,
        "ELEMENT_SET_NO": 999,
        "REV_AT_EPOCH": 3470,
        "BSTAR": 0,
        "MEAN_MOTION_DOT": -1.7e-07,
        "MEAN_MOTION_DDOT": 0
    },
    {
        "OBJECT_NAME": "COSMOS 2557 [GLONASS-K]",
        "OBJECT_ID": "2022-075A",
        "EPOCH": "2025-04-12T07:51:54.414432",
        "MEAN_MOTION": 2.13102089,
        "ECCENTRICITY": 0.0011065,
        "INCLINATION": 64.5382,
        "RA_OF_ASC_NODE": 329.628,
        "ARG_OF_PERICENTER": 285.2339,
        "MEAN_ANOMALY": 74.7008,
        "EPHEMERIS_TYPE": 0,
        "CLASSIFICATION_TYPE": "U",
        "NORAD_CAT_ID": 52984,
        "ELEMENT_SET_NO": 999,
        "REV_AT_EPOCH": 2153,
        "BSTAR": 0,
        "MEAN_MOTION_DOT": -5e-07,
        "MEAN_MOTION_DDOT": 0
    },
    {
        "OBJECT_NAME": "COSMOS 2559 [GLONASS-K]",
        "OBJECT_ID": "2022-130A",
        "EPOCH": "2025-04-01T00:13:14.067840",
        "MEAN_MOTION": 2.13101195,
        "ECCENTRICITY": 0.0005192,
        "INCLINATION": 64.5157,
        "RA_OF_ASC_NODE": 330.1326,
        "ARG_OF_PERICENTER": 225.6156,
        "MEAN_ANOMALY": 134.3984,
        "EPHEMERIS_TYPE": 0,
        "CLASSIFICATION_TYPE": "U",
        "NORAD_CAT_ID": 54031,
        "ELEMENT_SET_NO": 999,
        "REV_AT_EPOCH": 1926,
        "BSTAR": 0,
        "MEAN_MOTION_DOT": -5.1e-07,
        "MEAN_MOTION_DDOT": 0
    },
    {
        "OBJECT_NAME": "COSMOS 2564 [GLONASS-M]",
        "OBJECT_ID": "2022-161A",
        "EPOCH": "2025-04-12T22:19:02.470080",
        "MEAN_MOTION": 2.13102036,
        "ECCENTRICITY": 0.0009875,
        "INCLINATION": 64.7376,
        "RA_OF_ASC_NODE": 206.9981,
        "ARG_OF_PERICENTER": 216.2107,
        "MEAN_ANOMALY": 143.7357,
        "EPHEMERIS_TYPE": 0,
        "CLASSIFICATION_TYPE": "U",
        "NORAD_CAT_ID": 54377,
        "ELEMENT_SET_NO": 999,
        "REV_AT_EPOCH": 1846,
        "BSTAR": 0,
        "MEAN_MOTION_DOT": 6e-08,
        "MEAN_MOTION_DDOT": 0
    },
    {
        "OBJECT_NAME": "COSMOS 2569 [GLONASS-K2]",
        "OBJECT_ID": "2023-114A",
        "EPOCH": "2025-04-13T09:56:16.087776",
        "MEAN_MOTION": 2.13103977,
        "ECCENTRICITY": 0.0012861,
        "INCLINATION": 65.0635,
        "RA_OF_ASC_NODE": 87.1398,
        "ARG_OF_PERICENTER": 294.8494,
        "MEAN_ANOMALY": 65.0063,
        "EPHEMERIS_TYPE": 0,
        "CLASSIFICATION_TYPE": "U",
        "NORAD_CAT_ID": 57517,
        "ELEMENT_SET_NO": 999,
        "REV_AT_EPOCH": 1310,
        "BSTAR": 0,
        "MEAN_MOTION_DOT": 2e-07,
        "MEAN_MOTION_DDOT": 0
    },
    {
        "OBJECT_NAME": "COSMOS 2584 [GLONASS-K2]",
        "OBJECT_ID": "2025-042A",
        "EPOCH": "2025-04-12T08:41:23.566848",
        "MEAN_MOTION": 2.13103606,
        "ECCENTRICITY": 0.0007627,
        "INCLINATION": 64.8442,
        "RA_OF_ASC_NODE": 87.4747,
        "ARG_OF_PERICENTER": 237.2279,
        "MEAN_ANOMALY": 122.6925,
        "EPHEMERIS_TYPE": 0,
        "CLASSIFICATION_TYPE": "U",
        "NORAD_CAT_ID": 63130,
        "ELEMENT_SET_NO": 999,
        "REV_AT_EPOCH": 86,
        "BSTAR": 0,
        "MEAN_MOTION_DOT": 2.4e-07,
        "MEAN_MOTION_DDOT": 0
    }
]