COSMOS 2522 (752)       
1 42939U 17055A   25103.75096680  .00000015  00000+0  00000+0 0  9991
2 42939  64.0768 206.5058 0008229 234.5077 125.4349  2.13101829 58823
COSMOS 2529 (757)       
1 43687U 18086A   25103.80909033  .00000015  00000+0  00000+0 0  9998
2 43687  64.2927 207.0974 0009320 257.0665 102.8478  2.13102107 50130
COSMOS 2534 (758)       
1 44299U 19030A   25102.95460066  .00000006  00000+0  00000+0 0  9991
2 44299  64.3659 207.1079 0011023 280.6616 278.0123  2.13102459 45756
COSMOS 2544 (759)       
1 44850U 19088A   25103.65516121  .00000022  00000+0  00000+0 0  9997
2 44850  65.3326  88.0905 0015360 262.2569  97.5587  2.13102078 41566
COSMOS 2545 (760)       
1 45358U 20018A   25102.91335140 -.00000048  00000+0  00000+0 0  9993
2 45358  64.6031 327.5047 0007255 248.4081 111.5699  2.13102649 39496
COSMOS 2547 (705K)      
1 46805U 20075A   25101.22205148 -.00000017  00000+0  00000+0 0  9997
2 46805  64.5959 206.8963 0007457 236.3937 123.5384  2.13100377 34707
COSMOS 2557 (706K)      
1 52984U 22075A   25102.32771313 -.00000050  00000+0  00000+0 0  9995
2 52984  64.5382 329.6280 0011065 285.2339  74.7008  2.13102089 21536
COSMOS 2559 (707K)      
1 54031U 22130A   25091.00919060 -.00000051  00000+0  00000+0 0  9998
2 54031  64.5157 330.1326 0005192 225.6156 134.3984  2.13101195 19268
COSMOS 2564 (761)       
1 54377U 22161A   25102.92988970  .00000006  00000+0  00000+0 0  9994
2 54377  64.7376 206.9981 0009875 216.2107 143.7357  2.13102036 18461
COSMOS 2569 (703K)      
1 57517U 23114A   25103.41407509  .00000020  00000+0  00000+0 0  9997
2 57517  65.0635  87.1398 0012861 294.8494  65.0063  2.13103977 13104
COSMOS 2584 (704K)      
1 63130U 25042A   25102.36207832  .00000024  00000+0  00000+0 0  9991
2 63130  64.8442  87.4747 0007627 237.2279 122.6925  2.13103606   867
